     2              NAVIGATION DATA                         RINEX VERSION / TYPE
CCRINEXN V1.6.0 UX  CDDIS               08-OCT-17 17:31     PGM / RUN BY / DATE 
IGS BROADCAST EPHEMERIS FILE                                COMMENT             
    0.1024D-07  0.7451D-08 -0.5960D-07 -0.5960D-07          ION ALPHA           
    0.8806D+05  0.0000D+00 -0.1966D+06 -0.6554D+05          ION BETA            
   -0.186264514923D-08-0.532907051820D-14   147456     1970 DELTA-UTC: A0,A1,T,W
    18                                                      LEAP SECONDS        
                                                            END OF HEADER       
23 17 10  7 10  0  0.0-0.217935070395D-03-0.227373675443D-12 0.000000000000D+00
    0.170000000000D+02 0.608750000000D+02 0.450947368336D-08 0.589583986197D+00
    0.333972275257D-05 0.118664122419D-01 0.130087137222D-04 0.515367917633D+04
    0.554400000000D+06-0.171363353729D-06-0.269609287927D+01 0.236555933952D-06
    0.944504602659D+00 0.122468750000D+03-0.242010485188D+01-0.810640887749D-08
   -0.514307138544D-10 0.100000000000D+01 0.196900000000D+04 0.000000000000D+00
    0.200000000000D+01 0.000000000000D+00-0.204890966415D-07 0.170000000000D+02
    0.547230000000D+06 0.000000000000D+00 0.000000000000D+00 0.000000000000D+00
24 17 10  7 10  0  0.0-0.405786558986D-04-0.454747350886D-12 0.000000000000D+00
    0.100000000000D+02 0.804062500000D+02 0.530664978626D-08 0.651811181638D-01
    0.425614416599D-05 0.600907206535D-02 0.353530049324D-05 0.515367093849D+04
    0.554400000000D+06 0.279396772385D-07-0.167391754948D+01 0.428408384323D-07
    0.943680529202D+00 0.302687500000D+03 0.468621672934D+00-0.880393802305D-08
    0.402516769915D-09 0.100000000000D+01 0.196900000000D+04 0.000000000000D+00
    0.200000000000D+01 0.000000000000D+00 0.279396772385D-08 0.100000000000D+02
    0.547200000000D+06 0.000000000000D+00 0.000000000000D+00 0.000000000000D+00
25 17 10  7 10  0  0.0-0.468618702143D-03-0.636646291241D-11 0.000000000000D+00
    0.830000000000D+02-0.103031250000D+03 0.444482800207D-08-0.190520250447D+01
   -0.540167093277D-05 0.658529822249D-02 0.546313822269D-05 0.515374270821D+04
    0.554400000000D+06 0.117346644402D-06-0.587305663913D+00-0.912696123123D-07
    0.976259782121D+00 0.281562500000D+03 0.819024371195D+00-0.812033824468D-08
   -0.286440502825D-09 0.100000000000D+01 0.196900000000D+04 0.000000000000D+00
    0.200000000000D+01 0.000000000000D+00 0.558793544769D-08 0.830000000000D+02
    0.547200000000D+06 0.400000000000D+01 0.000000000000D+00 0.000000000000D+00
26 17 10  7 10  0  0.0-0.404325313866D-03 0.117097442853D-10 0.000000000000D+00
    0.170000000000D+02-0.100250000000D+03 0.482805839752D-08-0.245947285368D+01
   -0.519864261150D-05 0.196983967908D-02 0.568851828575D-05 0.515377827644D+04
    0.554400000000D+06-0.949949026108D-07-0.605079078441D+00-0.484287738800D-07
    0.957928488172D+00 0.271343750000D+03-0.382267969624D-01-0.835606250860D-08
   -0.353943319098D-09 0.100000000000D+01 0.196900000000D+04 0.000000000000D+00
    0.200000000000D+01 0.000000000000D+00 0.745058059692D-08 0.170000000000D+02
    0.000000000000D+00 0.000000000000D+00 0.000000000000D+00 0.000000000000D+00
27 17 10  7 10  0  0.0 0.334243755788D-03 0.454747350886D-11 0.000000000000D+00
    0.700000000000D+02-0.828125000000D+01 0.404338251769D-08 0.199643916793D+01
   -0.378116965294D-06 0.495820702054D-02 0.132229179144D-04 0.515367719078D+04
    0.554400000000D+06-0.126659870148D-06 0.451653777673D+00 0.838190317154D-07
    0.976168806172D+00 0.132500000000D+03 0.388433932335D+00-0.771246444486D-08
    0.223937896004D-09 0.100000000000D+01 0.196900000000D+04 0.000000000000D+00
    0.200000000000D+01 0.000000000000D+00 0.139698386192D-08 0.700000000000D+02
    0.000000000000D+00 0.000000000000D+00 0.000000000000D+00 0.000000000000D+00
28 17 10  7 10  0  0.0 0.651985872537D-03 0.306954461848D-11 0.000000000000D+00
    0.230000000000D+02-0.127187500000D+03 0.406195477254D-08 0.287460218535D+01
   -0.655464828014D-05 0.198967268225D-01 0.691972672939D-05 0.515366082382D+04
    0.554400000000D+06 0.331550836563D-06-0.507093338976D+00-0.707805156708D-07
    0.987788789345D+00 0.257531250000D+03-0.156234456921D+01-0.771996422344D-08
   -0.525379018068D-09 0.100000000000D+01 0.196900000000D+04 0.000000000000D+00
    0.200000000000D+01 0.000000000000D+00-0.111758708954D-07 0.230000000000D+02
    0.552060000000D+06 0.000000000000D+00 0.000000000000D+00 0.000000000000D+00
29 17 10  7 10  0  0.0 0.554106663913D-03-0.466116034659D-11 0.000000000000D+00
    0.140000000000D+02-0.145312500000D+02 0.389480509141D-08-0.304279401736D+01
   -0.713393092155D-06 0.466490164399D-03 0.127367675304D-04 0.515356112862D+04
    0.554400000000D+06 0.931322574616D-08 0.514643146119D+00-0.987201929092D-07
    0.982466898181D+00 0.142968750000D+03 0.921435165747D+00-0.765496171703D-08
    0.235366946835D-09 0.100000000000D+01 0.196900000000D+04 0.000000000000D+00
    0.200000000000D+01 0.000000000000D+00-0.102445483208D-07 0.140000000000D+02
    0.547200000000D+06 0.400000000000D+01 0.000000000000D+00 0.000000000000D+00
30 17 10  7 10  0  0.0 0.136205460876D-03-0.227373675443D-11 0.000000000000D+00
    0.110000000000D+02 0.763125000000D+02 0.524629006904D-08-0.882007940634D+00
    0.387802720070D-05 0.305570568889D-02 0.226870179176D-05 0.515361743927D+04
    0.554400000000D+06 0.633299350738D-07-0.158113154898D+01-0.726431608200D-07
    0.946284716488D+00 0.324500000000D+03-0.305178832883D+01-0.879286599087D-08
    0.412874345823D-09 0.100000000000D+01 0.196900000000D+04 0.000000000000D+00
    0.200000000000D+01 0.000000000000D+00 0.372529029846D-08 0.110000000000D+02
    0.548070000000D+06 0.000000000000D+00 0.000000000000D+00 0.000000000000D+00
32 17 10  7 10  0  0.0-0.510105863213D-03-0.477484718431D-11 0.000000000000D+00
    0.720000000000D+02 0.557187500000D+02 0.413660087746D-08 0.257350794555D+01
    0.300630927086D-05 0.147759274114D-02 0.124573707581D-04 0.515360333824D+04
    0.554400000000D+06-0.391155481338D-07-0.269281240398D+01-0.353902578354D-07
    0.958107947259D+00 0.136250000000D+03-0.256292716379D+01-0.786747056887D-08
    0.785747015231D-10 0.100000000000D+01 0.196900000000D+04 0.000000000000D+00
    0.200000000000D+01 0.000000000000D+00 0.931322574616D-09 0.720000000000D+02
    0.547200000000D+06 0.400000000000D+01 0.000000000000D+00 0.000000000000D+00
15 17 10  7 11 59 44.0-0.356440898031D-03-0.341060513165D-12 0.000000000000D+00
    0.170000000000D+02 0.452812500000D+02 0.483841582515D-08 0.217533922382D+01
    0.227987766266D-05 0.969962938689D-02 0.143013894558D-04 0.515363724136D+04
    0.561584000000D+06-0.178813934326D-06-0.276160349779D+01-0.106170773506D-06
    0.929269763541D+00 0.877812500000D+02 0.613035753823D+00-0.815783980677D-08
   -0.150363406097D-09 0.100000000000D+01 0.196900000000D+04 0.000000000000D+00
    0.200000000000D+01 0.000000000000D+00-0.107102096081D-07 0.170000000000D+02
    0.554400000000D+06 0.400000000000D+01 0.000000000000D+00 0.000000000000D+00
22 17 10  7 11 59 44.0-0.146798789501D-03-0.127329258248D-10 0.000000000000D+00
    0.140000000000D+02-0.669375000000D+02 0.564344926346D-08 0.236706405345D+01
   -0.359863042831D-05 0.721621687990D-02 0.607594847679D-05 0.515370729065D+04
    0.561584000000D+06 0.447034835815D-07 0.250072557527D+01-0.912696123123D-07
    0.924167333496D+00 0.238187500000D+03-0.167146581142D+01-0.858642934531D-08
   -0.659313159623D-09 0.100000000000D+01 0.196900000000D+04 0.000000000000D+00
    0.200000000000D+01 0.000000000000D+00-0.176951289177D-07 0.140000000000D+02
    0.554430000000D+06 0.000000000000D+00 0.000000000000D+00 0.000000000000D+00
25 17 10  7 11 59 44.0-0.468664802611D-03-0.636646291241D-11 0.000000000000D+00
    0.120000000000D+02-0.105906250000D+03 0.448768711081D-08-0.857316235828D+00
   -0.536441802979D-05 0.658555561677D-02 0.538490712643D-05 0.515374379158D+04
    0.561584000000D+06 0.128522515297D-06-0.587363943643D+00 0.150874257088D-06
    0.976256568090D+00 0.285375000000D+03 0.818942124478D+00-0.832213231661D-08
   -0.385730364316D-09 0.100000000000D+01 0.196900000000D+04 0.000000000000D+00
    0.200000000000D+01 0.000000000000D+00 0.558793544769D-08 0.120000000000D+02
    0.556860000000D+06 0.000000000000D+00 0.000000000000D+00 0.000000000000D+00
27 17 10  7 11 59 44.0 0.334276352078D-03 0.454747350886D-11 0.000000000000D+00
    0.500000000000D+01-0.155625000000D+02 0.392730644522D-08 0.304409978000D+01
   -0.774860382080D-06 0.495741411578D-02 0.129900872707D-04 0.515367935944D+04
    0.561584000000D+06-0.745058059692D-07 0.451598621272D+00-0.596046447754D-07
    0.976171154155D+00 0.138406250000D+03 0.388613748374D+00-0.758745890526D-08
    0.267511142913D-09 0.100000000000D+01 0.196900000000D+04 0.000000000000D+00
    0.200000000000D+01 0.000000000000D+00 0.139698386192D-08 0.500000000000D+01
    0.556560000000D+06 0.400000000000D+01 0.000000000000D+00 0.000000000000D+00
28 17 10  7 11 59 44.0 0.652008689940D-03 0.306954461848D-11 0.000000000000D+00
    0.780000000000D+02-0.114343750000D+03 0.396337940245D-08-0.236077896385D+01
   -0.573694705963D-05 0.198975696694D-01 0.650808215141D-05 0.515365885544D+04
    0.561584000000D+06 0.169500708580D-06-0.507149889537D+00 0.193715095520D-06
    0.987786157556D+00 0.258687500000D+03-0.156229691319D+01-0.766139063302D-08
   -0.285011875212D-09 0.100000000000D+01 0.196900000000D+04 0.000000000000D+00
    0.200000000000D+01 0.000000000000D+00-0.111758708954D-07 0.780000000000D+02
    0.556200000000D+06 0.000000000000D+00 0.000000000000D+00 0.000000000000D+00
